CCSDS_OMM_VERS = 2.0
CREATION_DATE  = 
ORIGINATOR     = 

OBJECT_NAME    = KUIPER-00232
OBJECT_ID      = 2025-301R
CENTER_NAME    = EARTH
REF_FRAME      = TEME
TIME_SYSTEM    = UTC
MEAN_ELEMENT_THEORY = SGP/SGP4

EPOCH          = 2025-12-31T21:25:45.826464
MEAN_MOTION    = 15.36895023
ECCENTRICITY   = .00021092
INCLINATION    = 51.8744
RA_OF_ASC_NODE = 32.6205
ARG_OF_PERICENTER = 68.5529
MEAN_ANOMALY   = 291.5682

EPHEMERIS_TYPE = 0
CLASSIFICATION_TYPE = U
NORAD_CAT_ID   = 67148
ELEMENT_SET_NO = 999
REV_AT_EPOCH   = 331
BSTAR          = .1208981E-2
MEAN_MOTION_DOT = .44162E-3
MEAN_MOTION_DDOT = 0

CCSDS_OMM_VERS = 2.0
CREATION_DATE  = 
ORIGINATOR     = 

OBJECT_NAME    = KUIPER-00241
OBJECT_ID      = 2025-301S
CENTER_NAME    = EARTH
REF_FRAME      = TEME
TIME_SYSTEM    = UTC
MEAN_ELEMENT_THEORY = SGP/SGP4

EPOCH          = 2025-12-31T21:32:32.893152
MEAN_MOTION    = 15.36439594
ECCENTRICITY   = .00025425
INCLINATION    = 51.8742
RA_OF_ASC_NODE = 32.6503
ARG_OF_PERICENTER = 109.5747
MEAN_ANOMALY   = 250.5514

EPHEMERIS_TYPE = 0
CLASSIFICATION_TYPE = U
NORAD_CAT_ID   = 67149
ELEMENT_SET_NO = 999
REV_AT_EPOCH   = 364
BSTAR          = .19507648E-2
MEAN_MOTION_DOT = .70701E-3
MEAN_MOTION_DDOT = 0

CCSDS_OMM_VERS = 2.0
CREATION_DATE  = 
ORIGINATOR     = 

OBJECT_NAME    = KUIPER-00245
OBJECT_ID      = 2025-301T
CENTER_NAME    = EARTH
REF_FRAME      = TEME
TIME_SYSTEM    = UTC
MEAN_ELEMENT_THEORY = SGP/SGP4

EPOCH          = 2025-12-31T21:41:28.607712
MEAN_MOTION    = 15.35919129
ECCENTRICITY   = .00051296
INCLINATION    = 51.8725
RA_OF_ASC_NODE = 32.6936
ARG_OF_PERICENTER = 137.3873
MEAN_ANOMALY   = 222.7512

EPHEMERIS_TYPE = 0
CLASSIFICATION_TYPE = U
NORAD_CAT_ID   = 67150
ELEMENT_SET_NO = 999
REV_AT_EPOCH   = 331
BSTAR          = .14048763E-2
MEAN_MOTION_DOT = .49836E-3
MEAN_MOTION_DDOT = 0

CCSDS_OMM_VERS = 2.0
CREATION_DATE  = 
ORIGINATOR     = 

OBJECT_NAME    = KUIPER-00246
OBJECT_ID      = 2025-301U
CENTER_NAME    = EARTH
REF_FRAME      = TEME
TIME_SYSTEM    = UTC
MEAN_ELEMENT_THEORY = SGP/SGP4

EPOCH          = 2025-12-31T21:36:55.705536
MEAN_MOTION    = 15.36183347
ECCENTRICITY   = .00040329
INCLINATION    = 51.8736
RA_OF_ASC_NODE = 32.6725
ARG_OF_PERICENTER = 130.9941
MEAN_ANOMALY   = 229.1394

EPHEMERIS_TYPE = 0
CLASSIFICATION_TYPE = U
NORAD_CAT_ID   = 67151
ELEMENT_SET_NO = 999
REV_AT_EPOCH   = 333
BSTAR          = .16554954E-2
MEAN_MOTION_DOT = .59365E-3
MEAN_MOTION_DDOT = 0

CCSDS_OMM_VERS = 2.0
CREATION_DATE  = 
ORIGINATOR     = 

OBJECT_NAME    = KUIPER-00247
OBJECT_ID      = 2025-301V
CENTER_NAME    = EARTH
REF_FRAME      = TEME
TIME_SYSTEM    = UTC
MEAN_ELEMENT_THEORY = SGP/SGP4

EPOCH          = 2025-12-31T22:05:41.701920
MEAN_MOTION    = 15.34310868
ECCENTRICITY   = .00110639
INCLINATION    = 51.8637
RA_OF_ASC_NODE = 32.7991
ARG_OF_PERICENTER = 169.9676
MEAN_ANOMALY   = 190.1533

EPHEMERIS_TYPE = 0
CLASSIFICATION_TYPE = U
NORAD_CAT_ID   = 67152
ELEMENT_SET_NO = 999
REV_AT_EPOCH   = 331
BSTAR          = .86115667E-3
MEAN_MOTION_DOT = .28824E-3
MEAN_MOTION_DDOT = 0

CCSDS_OMM_VERS = 2.0
CREATION_DATE  = 
ORIGINATOR     = 

OBJECT_NAME    = KUIPER-00248
OBJECT_ID      = 2025-301W
CENTER_NAME    = EARTH
REF_FRAME      = TEME
TIME_SYSTEM    = UTC
MEAN_ELEMENT_THEORY = SGP/SGP4

EPOCH          = 2025-12-31T21:55:48.106272
MEAN_MOTION    = 15.35010041
ECCENTRICITY   = .00088552
INCLINATION    = 51.8679
RA_OF_ASC_NODE = 32.7587
ARG_OF_PERICENTER = 157.7058
MEAN_ANOMALY   = 202.4315

EPHEMERIS_TYPE = 0
CLASSIFICATION_TYPE = U
NORAD_CAT_ID   = 67153
ELEMENT_SET_NO = 999
REV_AT_EPOCH   = 348
BSTAR          = .1482741E-2
MEAN_MOTION_DOT = .51152E-3
MEAN_MOTION_DDOT = 0

CCSDS_OMM_VERS = 2.0
CREATION_DATE  = 
ORIGINATOR     = 

OBJECT_NAME    = KUIPER-00249
OBJECT_ID      = 2025-301X
CENTER_NAME    = EARTH
REF_FRAME      = TEME
TIME_SYSTEM    = UTC
MEAN_ELEMENT_THEORY = SGP/SGP4

EPOCH          = 2025-12-31T21:53:10.455648
MEAN_MOTION    = 15.35143891
ECCENTRICITY   = .00083379
INCLINATION    = 51.8655
RA_OF_ASC_NODE = 32.7447
ARG_OF_PERICENTER = 155.0486
MEAN_ANOMALY   = 205.0904

EPHEMERIS_TYPE = 0
CLASSIFICATION_TYPE = U
NORAD_CAT_ID   = 67154
ELEMENT_SET_NO = 999
REV_AT_EPOCH   = 331
BSTAR          = .13343589E-2
MEAN_MOTION_DOT = .46156E-3
MEAN_MOTION_DDOT = 0

CCSDS_OMM_VERS = 2.0
CREATION_DATE  = 
ORIGINATOR     = 

OBJECT_NAME    = KUIPER-00250
OBJECT_ID      = 2025-301Y
CENTER_NAME    = EARTH
REF_FRAME      = TEME
TIME_SYSTEM    = UTC
MEAN_ELEMENT_THEORY = SGP/SGP4

EPOCH          = 2025-12-31T21:45:47.326464
MEAN_MOTION    = 15.35689499
ECCENTRICITY   = .00064644
INCLINATION    = 51.8715
RA_OF_ASC_NODE = 32.7136
ARG_OF_PERICENTER = 139.3510
MEAN_ANOMALY   = 220.7960

EPHEMERIS_TYPE = 0
CLASSIFICATION_TYPE = U
NORAD_CAT_ID   = 67155
ELEMENT_SET_NO = 999
REV_AT_EPOCH   = 334
BSTAR          = .14253228E-2
MEAN_MOTION_DOT = .50208E-3
MEAN_MOTION_DDOT = 0

CCSDS_OMM_VERS = 2.0
CREATION_DATE  = 
ORIGINATOR     = 

OBJECT_NAME    = KUIPER-00251
OBJECT_ID      = 2025-301Z
CENTER_NAME    = EARTH
REF_FRAME      = TEME
TIME_SYSTEM    = UTC
MEAN_ELEMENT_THEORY = SGP/SGP4

EPOCH          = 2025-12-31T21:54:26.327808
MEAN_MOTION    = 15.35114738
ECCENTRICITY   = .00089971
INCLINATION    = 51.8669
RA_OF_ASC_NODE = 32.7512
ARG_OF_PERICENTER = 152.9743
MEAN_ANOMALY   = 207.1713

EPHEMERIS_TYPE = 0
CLASSIFICATION_TYPE = U
NORAD_CAT_ID   = 67156
ELEMENT_SET_NO = 999
REV_AT_EPOCH   = 350
BSTAR          = .1308943E-2
MEAN_MOTION_DOT = .45229E-3
MEAN_MOTION_DDOT = 0

CCSDS_OMM_VERS = 2.0
CREATION_DATE  = 
ORIGINATOR     = 

OBJECT_NAME    = KUIPER-00252
OBJECT_ID      = 2025-301AA
CENTER_NAME    = EARTH
REF_FRAME      = TEME
TIME_SYSTEM    = UTC
MEAN_ELEMENT_THEORY = SGP/SGP4

EPOCH          = 2025-12-31T22:01:33.513600
MEAN_MOTION    = 15.34458333
ECCENTRICITY   = .00098439
INCLINATION    = 51.8660
RA_OF_ASC_NODE = 32.7827
ARG_OF_PERICENTER = 163.8742
MEAN_ANOMALY   = 196.2558

EPHEMERIS_TYPE = 0
CLASSIFICATION_TYPE = U
NORAD_CAT_ID   = 67157
ELEMENT_SET_NO = 999
REV_AT_EPOCH   = 331
BSTAR          = .86634648E-3
MEAN_MOTION_DOT = .29128E-3
MEAN_MOTION_DDOT = 0

CCSDS_OMM_VERS = 2.0
CREATION_DATE  = 
ORIGINATOR     = 

OBJECT_NAME    = KUIPER-00261
OBJECT_ID      = 2025-301AB
CENTER_NAME    = EARTH
REF_FRAME      = TEME
TIME_SYSTEM    = UTC
MEAN_ELEMENT_THEORY = SGP/SGP4

EPOCH          = 2025-12-31T21:44:18.874464
MEAN_MOTION    = 15.35640893
ECCENTRICITY   = .00059954
INCLINATION    = 51.8694
RA_OF_ASC_NODE = 32.7080
ARG_OF_PERICENTER = 134.9798
MEAN_ANOMALY   = 225.1675

EPHEMERIS_TYPE = 0
CLASSIFICATION_TYPE = U
NORAD_CAT_ID   = 67158
ELEMENT_SET_NO = 999
REV_AT_EPOCH   = 331
BSTAR          = .21737138E-2
MEAN_MOTION_DOT = .76918E-3
MEAN_MOTION_DDOT = 0

CCSDS_OMM_VERS = 2.0
CREATION_DATE  = 
ORIGINATOR     = 

OBJECT_NAME    = KUIPER-00265
OBJECT_ID      = 2025-301AC
CENTER_NAME    = EARTH
REF_FRAME      = TEME
TIME_SYSTEM    = UTC
MEAN_ELEMENT_THEORY = SGP/SGP4

EPOCH          = 2025-12-31T21:29:44.214432
MEAN_MOTION    = 15.36682630
ECCENTRICITY   = .00018895
INCLINATION    = 51.8738
RA_OF_ASC_NODE = 32.6409
ARG_OF_PERICENTER = 104.6368
MEAN_ANOMALY   = 255.4828

EPHEMERIS_TYPE = 0
CLASSIFICATION_TYPE = U
NORAD_CAT_ID   = 67159
ELEMENT_SET_NO = 999
REV_AT_EPOCH   = 334
BSTAR          = .18348394E-2
MEAN_MOTION_DOT = .66966E-3
MEAN_MOTION_DDOT = 0

