KUIPER-00232            
1 67148U 25301R   25365.89289151  .00044162  00000+0  12090-2 0  9991
2 67148  51.8744  32.6205 0002109  68.5529 291.5682 15.36895023  3314
KUIPER-00241            
1 67149U 25301S   25365.89760293  .00070701  00000+0  19508-2 0  9992
2 67149  51.8742  32.6503 0002542 109.5747 250.5514 15.36439594  3645
KUIPER-00245            
1 67150U 25301T   25365.90380333  .00049836  00000+0  14049-2 0  9999
2 67150  51.8725  32.6936 0005129 137.3873 222.7512 15.35919129  3310
KUIPER-00246            
1 67151U 25301U   25365.90064474  .00059365  00000+0  16555-2 0  9997
2 67151  51.8736  32.6725 0004032 130.9941 229.1394 15.36183347  3333
KUIPER-00247            
1 67152U 25301V   25365.92062155  .00028824  00000+0  86116-3 0  9991
2 67152  51.8637  32.7991 0011063 169.9676 190.1533 15.34310868  3317
KUIPER-00248            
1 67153U 25301W   25365.91375123  .00051152  00000+0  14827-2 0  9992
2 67153  51.8679  32.7587 0008855 157.7058 202.4315 15.35010041  3483
KUIPER-00249            
1 67154U 25301X   25365.91192657  .00046156  00000+0  13344-2 0  9993
2 67154  51.8655  32.7447 0008337 155.0486 205.0904 15.35143891  3319
KUIPER-00250            
1 67155U 25301Y   25365.90679776  .00050208  00000+0  14253-2 0  9998
2 67155  51.8715  32.7136 0006464 139.3510 220.7960 15.35689499  3342
KUIPER-00251            
1 67156U 25301Z   25365.91280472  .00045229  00000+0  13089-2 0  9994
2 67156  51.8669  32.7512 0008997 152.9743 207.1713 15.35114738  3503
KUIPER-00252            
1 67157U 25301AA  25365.91774900  .00029128  00000+0  86635-3 0  9997
2 67157  51.8660  32.7827 0009843 163.8742 196.2558 15.34458333  3310
KUIPER-00261            
1 67158U 25301AB  25365.90577401  .00076918  00000+0  21737-2 0  9994
2 67158  51.8694  32.7080 0005995 134.9798 225.1675 15.35640893  3310
KUIPER-00265            
1 67159U 25301AC  25365.89565063  .00066966  00000+0  18348-2 0  9990
2 67159  51.8738  32.6409 0001889 104.6368 255.4828 15.36682630  3344
